GLOBALSTAR M063         
1 26081U 00008A   25022.46419463 -.00000109  00000+0 -39228-3 0  9991
2 26081  51.9947 135.3528 0004942  45.5382  32.2839 11.86168148140283
GLOBALSTAR M062         
1 26082U 00008B   25023.51800549 -.00000069  00000+0  20980-3 0  9997
2 26082  51.9832 161.2076 0007607 156.8388 278.2862 12.43458622141121
GLOBALSTAR M060         
1 26083U 00008C   25023.51759598 -.00000006  00000+0  84094-3 0  9992
2 26083  52.0020 100.7505 0003853 178.4515 282.9537 12.17651688134917
GLOBALSTAR M064         
1 26084U 00008D   25023.49210324 -.00000030  00000+0  75619-3 0  9999
2 26084  52.0001 233.1815 0002336 113.6440 246.4638 11.88529711150008
GLOBALSTAR M065         
1 31571U 07020A   25022.28180536 -.00000128  00000+0 -13672-3 0  9994
2 31571  51.9914 310.3564 0010535 347.1988 178.4086 12.61990374814980
GLOBALSTAR M069         
1 31573U 07020C   25022.18716219 -.00000063  00000+0  24432-3 0  9991
2 31573  51.9946 272.0785 0001722  34.3440 134.4454 12.47306668816009
GLOBALSTAR M072         
1 31574U 07020D   25023.34251428 -.00000077  00000+0  95777-4 0  9993
2 31574  52.0100  17.5409 0000888  65.1847  73.8060 11.91772143814363
GLOBALSTAR M071         
1 31576U 07020F   25023.17580168 -.00000084  00000+0  68964-4 0  9998
2 31576  52.0063 277.1712 0001045 110.1855  56.4648 12.18247557816008
